start=new Date('2022-01-16T00:00:00.000Z').valueOf();
sats=[{"TLE_LINE2":"2 47762  53.0524 182.3131 0002313  76.5142 283.6104 15.06412257 49370","INCLINATION":"53.0524","PERIAPSIS":"545.574","OBJECT_ID":"2021-017AS","SITE":"AFETR","CLASSIFICATION_TYPE":"U","MEAN_MOTION":"15.06412257","ELEMENT_SET_NO":"999","GP_ID":"193947116","MEAN_ANOMALY":"283.6104","RCS_SIZE":"LARGE","OBJECT_NAME":"STARLINK-2180","COUNTRY_CODE":"US","EPHEMERIS_TYPE":"0","MEAN_ELEMENT_THEORY":"SGP4","ARG_OF_PERICENTER":"76.5142","CENTER_NAME":"EARTH","REF_FRAME":"TEME","DECAY_DATE":null,"REV_AT_EPOCH":"4937","TLE_LINE1":"1 47762U 21017AS  22015.89612129  .00003359  00000-0  24423-3 0  9993","BSTAR":"0.00024423000000","LAUNCH_DATE":"2021-03-04","APOAPSIS":"548.778","MEAN_MOTION_DOT":"0.00003359","RA_OF_ASC_NODE":"182.3131","NORAD_CAT_ID":"47762","SEMIMAJOR_AXIS":"6925.311","EPOCH":"2022-01-15T21:30:24.879456","OBJECT_TYPE":"PAYLOAD","ECCENTRICITY":"0.00023130","MEAN_MOTION_DDOT":"0.0000000000000","FILE":"3274074","PERIOD":"95.591","TIME_SYSTEM":"UTC"},{"MEAN_ELEMENT_THEORY":"SGP4","ARG_OF_PERICENTER":"74.7972","CENTER_NAME":"EARTH","DECAY_DATE":null,"REF_FRAME":"TEME","REV_AT_EPOCH":"4946","TLE_LINE1":"1 47763U 21017AT  22015.71367131  .00002150  00000-0  16313-3 0  9992","BSTAR":"0.00016313000000","LAUNCH_DATE":"2021-03-04","APOAPSIS":"548.684","MEAN_MOTION_DOT":"0.00002150","RA_OF_ASC_NODE":"173.1074","SEMIMAJOR_AXIS":"6925.306","NORAD_CAT_ID":"47763","EPOCH":"2022-01-15T17:07:41.201184","OBJECT_TYPE":"PAYLOAD","ECCENTRICITY":"0.00021850","MEAN_MOTION_DDOT":"0.0000000000000","FILE":"3274074","PERIOD":"95.591","TIME_SYSTEM":"UTC","TLE_LINE2":"2 47763  53.0613 173.1074 0002185  74.7972 285.3259 15.06413914 49463","INCLINATION":"53.0613","PERIAPSIS":"545.658","OBJECT_ID":"2021-017AT","SITE":"AFETR","CLASSIFICATION_TYPE":"U","MEAN_MOTION":"15.06413914","ELEMENT_SET_NO":"999","GP_ID":"193947368","MEAN_ANOMALY":"285.3259","RCS_SIZE":"LARGE","OBJECT_NAME":"STARLINK-2181","COUNTRY_CODE":"US","EPHEMERIS_TYPE":"0"},{"CENTER_NAME":"EARTH","REF_FRAME":"TEME","DECAY_DATE":null,"MEAN_ELEMENT_THEORY":"SGP4","ARG_OF_PERICENTER":"78.7319","TLE_LINE1":"1 47764U 21017AU  22015.74962333  .00003392  00000-0  24645-3 0  9997","BSTAR":"0.00024645000000","LAUNCH_DATE":"2021-03-04","MEAN_MOTION_DOT":"0.00003392","APOAPSIS":"548.740","RA_OF_ASC_NODE":"182.9629","REV_AT_EPOCH":"4938","NORAD_CAT_ID":"47764","SEMIMAJOR_AXIS":"6925.305","EPOCH":"2022-01-15T17:59:27.455712","OBJECT_TYPE":"PAYLOAD","ECCENTRICITY":"0.00022670","TIME_SYSTEM":"UTC","MEAN_MOTION_DDOT":"0.0000000000000","FILE":"3274074","PERIOD":"95.591","PERIAPSIS":"545.600","TLE_LINE2":"2 47764  53.0523 182.9629 0002267  78.7319 281.3925 15.06414328 49385","INCLINATION":"53.0523","ELEMENT_SET_NO":"999","OBJECT_ID":"2021-017AU","SITE":"AFETR","CLASSIFICATION_TYPE":"U","MEAN_MOTION":"15.06414328","MEAN_ANOMALY":"281.3925","GP_ID":"193948113","COUNTRY_CODE":"US","EPHEMERIS_TYPE":"0","RCS_SIZE":"LARGE","OBJECT_NAME":"STARLINK-2182"},{"MEAN_ANOMALY":"253.9287","GP_ID":"193946367","EPHEMERIS_TYPE":"0","COUNTRY_CODE":"US","OBJECT_NAME":"STARLINK-2183","RCS_SIZE":"LARGE","PERIAPSIS":"539.901","INCLINATION":"53.0543","TLE_LINE2":"2 47765  53.0543 162.4938 0002795 106.2011 253.9287 15.08156630 49620","ELEMENT_SET_NO":"999","MEAN_MOTION":"15.08156630","CLASSIFICATION_TYPE":"U","SITE":"AFETR","OBJECT_ID":"2021-017AV","ECCENTRICITY":"0.00027950","OBJECT_TYPE":"PAYLOAD","EPOCH":"2022-01-15T17:36:41.264352","NORAD_CAT_ID":"47765","SEMIMAJOR_AXIS":"6919.970","TIME_SYSTEM":"UTC","PERIOD":"95.481","FILE":"3274074","MEAN_MOTION_DDOT":"0.0000000000000","DECAY_DATE":null,"REF_FRAME":"TEME","CENTER_NAME":"EARTH","ARG_OF_PERICENTER":"106.2011","MEAN_ELEMENT_THEORY":"SGP4","RA_OF_ASC_NODE":"162.4938","MEAN_MOTION_DOT":"0.00002615","LAUNCH_DATE":"2021-03-04","APOAPSIS":"543.769","BSTAR":"0.00018565000000","TLE_LINE1":"1 47765U 21017AV  22015.73381093  .00002615  00000-0  18565-3 0  9996","REV_AT_EPOCH":"4962"},{"PERIOD":"95.592","FILE":"3274074","MEAN_MOTION_DDOT":"0.0000000000000","TIME_SYSTEM":"UTC","ECCENTRICITY":"0.00020940","OBJECT_TYPE":"PAYLOAD","EPOCH":"2022-01-15T21:37:03.586944","NORAD_CAT_ID":"47766","SEMIMAJOR_AXIS":"6925.328","REV_AT_EPOCH":"4934","RA_OF_ASC_NODE":"182.2875","LAUNCH_DATE":"2021-03-04","MEAN_MOTION_DOT":"0.00001627","APOAPSIS":"548.644","BSTAR":"0.00012807000000","TLE_LINE1":"1 47766U 21017AW  22015.90073596  .00001627  00000-0  12807-3 0  9997","ARG_OF_PERICENTER":"76.6083","MEAN_ELEMENT_THEORY":"SGP4","DECAY_DATE":null,"REF_FRAME":"TEME","CENTER_NAME":"EARTH","OBJECT_NAME":"STARLINK-2184","RCS_SIZE":"LARGE","EPHEMERIS_TYPE":"0","COUNTRY_CODE":"US","GP_ID":"193946617","MEAN_ANOMALY":"283.5139","MEAN_MOTION":"15.06406583","CLASSIFICATION_TYPE":"U","OBJECT_ID":"2021-017AW","SITE":"AFETR","ELEMENT_SET_NO":"999","INCLINATION":"53.0552","TLE_LINE2":"2 47766  53.0552 182.2875 0002094  76.6083 283.5139 15.06406583 49349","PERIAPSIS":"545.743"},{"OBJECT_ID":"2021-017AX","SITE":"AFETR","MEAN_MOTION":"15.06411390","CLASSIFICATION_TYPE":"U","ELEMENT_SET_NO":"999","INCLINATION":"53.0552","TLE_LINE2":"2 47767  53.0552 168.0671 0001707  83.9236 276.1948 15.06411390 49592","PERIAPSIS":"545.996","RCS_SIZE":"LARGE","OBJECT_NAME":"STARLINK-2185","EPHEMERIS_TYPE":"0","COUNTRY_CODE":"US","GP_ID":"193947868","MEAN_ANOMALY":"276.1948","REV_AT_EPOCH":"4959","BSTAR":"0.00006611500000","TLE_LINE1":"1 47767U 21017AX  22015.72703140  .00000704  00000-0  66115-4 0  9990","RA_OF_ASC_NODE":"168.0671","MEAN_MOTION_DOT":"0.00000704","LAUNCH_DATE":"2021-03-04","APOAPSIS":"548.361","ARG_OF_PERICENTER":"83.9236","MEAN_ELEMENT_THEORY":"SGP4","REF_FRAME":"TEME","DECAY_DATE":null,"CENTER_NAME":"EARTH","PERIOD":"95.591","FILE":"3274074","MEAN_MOTION_DDOT":"0.0000000000000","TIME_SYSTEM":"UTC","EPOCH":"2022-01-15T17:26:55.512960","SEMIMAJOR_AXIS":"6925.314","NORAD_CAT_ID":"47767","ECCENTRICITY":"0.00017070","OBJECT_TYPE":"PAYLOAD"},{"LAUNCH_DATE":"2021-03-04","APOAPSIS":"548.754","MEAN_MOTION_DOT":"0.00002084","RA_OF_ASC_NODE":"183.0580","TLE_LINE1":"1 47768U 21017AY  22015.73023832  .00002084  00000-0  15873-3 0  9992","BSTAR":"0.00015873000000","REV_AT_EPOCH":"4935","CENTER_NAME":"EARTH","REF_FRAME":"TEME","DECAY_DATE":null,"MEAN_ELEMENT_THEORY":"SGP4","ARG_OF_PERICENTER":"79.1577","TIME_SYSTEM":"UTC","MEAN_MOTION_DDOT":"0.0000000000000","FILE":"3274074","PERIOD":"95.591","OBJECT_TYPE":"PAYLOAD","ECCENTRICITY":"0.00023080","SEMIMAJOR_AXIS":"6925.290","NORAD_CAT_ID":"47768","EPOCH":"2022-01-15T17:31:32.590848","ELEMENT_SET_NO":"999","CLASSIFICATION_TYPE":"U","MEAN_MOTION":"15.06419036","OBJECT_ID":"2021-017AY","SITE":"AFETR","PERIAPSIS":"545.557","TLE_LINE2":"2 47768  53.0535 183.0580 0002308  79.1577 280.9671 15.06419036 49358","INCLINATION":"53.0535","COUNTRY_CODE":"US","EPHEMERIS_TYPE":"0","OBJECT_NAME":"STARLINK-2189","RCS_SIZE":"LARGE","MEAN_ANOMALY":"280.9671","GP_ID":"193947614"},{"RA_OF_ASC_NODE":"147.5292","APOAPSIS":"548.511","LAUNCH_DATE":"2021-03-04","MEAN_MOTION_DOT":"0.00003295","BSTAR":"0.00023994000000","TLE_LINE1":"1 47769U 21017AZ  22015.84313729  .00003295  00000-0  23994-3 0  9990","REV_AT_EPOCH":"4988","REF_FRAME":"TEME","DECAY_DATE":null,"CENTER_NAME":"EARTH","ARG_OF_PERICENTER":"83.0259","MEAN_ELEMENT_THEORY":"SGP4","TIME_SYSTEM":"UTC","PERIOD":"95.592","FILE":"3274074","MEAN_MOTION_DDOT":"0.0000000000000","ECCENTRICITY":"0.00019040","OBJECT_TYPE":"PAYLOAD","EPOCH":"2022-01-15T20:14:07.061856","NORAD_CAT_ID":"47769","SEMIMAJOR_AXIS":"6925.327","ELEMENT_SET_NO":"999","MEAN_MOTION":"15.06406973","CLASSIFICATION_TYPE":"U","SITE":"AFETR","OBJECT_ID":"2021-017AZ","PERIAPSIS":"545.874","INCLINATION":"53.0523","TLE_LINE2":"2 47769  53.0523 147.5292 0001904  83.0259 277.0946 15.06406973 49889","EPHEMERIS_TYPE":"0","COUNTRY_CODE":"US","OBJECT_NAME":"STARLINK-2192","RCS_SIZE":"LARGE","MEAN_ANOMALY":"277.0946","GP_ID":"193946867"},{"TIME_SYSTEM":"UTC","PERIOD":"95.592","FILE":"3274074","MEAN_MOTION_DDOT":"0.0000000000000","ECCENTRICITY":"0.00019720","OBJECT_TYPE":"PAYLOAD","EPOCH":"2022-01-15T17:14:19.406688","NORAD_CAT_ID":"47770","SEMIMAJOR_AXIS":"6925.347","RA_OF_ASC_NODE":"163.1396","LAUNCH_DATE":"2021-03-04","APOAPSIS":"548.578","MEAN_MOTION_DOT":"0.00000581","BSTAR":"0.00005794200000","TLE_LINE1":"1 47770U 21017BA  22015.71828017  .00000581  00000-0  57942-4 0  9995","REV_AT_EPOCH":"4963","DECAY_DATE":null,"REF_FRAME":"TEME","CENTER_NAME":"EARTH","ARG_OF_PERICENTER":"76.0309","MEAN_ELEMENT_THEORY":"SGP4","EPHEMERIS_TYPE":"0","COUNTRY_CODE":"US","OBJECT_NAME":"STARLINK-2193","RCS_SIZE":"LARGE","MEAN_ANOMALY":"284.0899","GP_ID":"193947117","ELEMENT_SET_NO":"999","MEAN_MOTION":"15.06400396","CLASSIFICATION_TYPE":"U","OBJECT_ID":"2021-017BA","SITE":"AFETR","PERIAPSIS":"545.847","INCLINATION":"53.0548","TLE_LINE2":"2 47770  53.0548 163.1396 0001972  76.0309 284.0899 15.06400396 49631"},{"COUNTRY_CODE":"US","EPHEMERIS_TYPE":"0","OBJECT_NAME":"STARLINK-2194","RCS_SIZE":"LARGE","MEAN_ANOMALY":"273.4296","GP_ID":"193947369","ELEMENT_SET_NO":"999","CLASSIFICATION_TYPE":"U","MEAN_MOTION":"15.06410708","OBJECT_ID":"2021-017BB","SITE":"AFETR","PERIAPSIS":"545.476","TLE_LINE2":"2 47771  53.0553 163.3445 0002461  86.6974 273.4296 15.06410708 49635","INCLINATION":"53.0553","TIME_SYSTEM":"UTC","FILE":"3274074","MEAN_MOTION_DDOT":"0.0000000000000","PERIOD":"95.591","OBJECT_TYPE":"PAYLOAD","ECCENTRICITY":"0.00024610","SEMIMAJOR_AXIS":"6925.316","NORAD_CAT_ID":"47771","EPOCH":"2022-01-15T15:54:42.401664","LAUNCH_DATE":"2021-03-04","APOAPSIS":"548.885","MEAN_MOTION_DOT":"0.00000625","RA_OF_ASC_NODE":"163.3445","TLE_LINE1":"1 47771U 21017BB  22015.66299076  .00000625  00000-0  60854-4 0  9992","BSTAR":"0.00006085400000","REV_AT_EPOCH":"4963","CENTER_NAME":"EARTH","REF_FRAME":"TEME","DECAY_DATE":null,"MEAN_ELEMENT_THEORY":"SGP4","ARG_OF_PERICENTER":"86.6974"}];
